METOP-C                 
1 43689U 18087A   26183.76441601  .00000135  00000+0  81723-4 0  9996
2 43689  98.6637 243.0828 0002155 109.5138 250.6273 14.21516397397045
GEO-KOMPSAT-2A          
1 43823U 18100A   26183.83125883 -.00000333  00000+0  00000+0 0  9996
2 43823   0.0451 169.6912 0002256 284.8102 253.8621  1.00268738 27782
METEOR-M2 2             
1 44387U 19038A   26183.90954347 -.00000196  00000+0 -64877-4 0  9991
2 44387  98.9148 171.4273 0001397  25.1865 334.9381 14.24369324363538
ARKTIKA-M 1             
1 47719U 21016A   26180.95192977 -.00000281  00000+0  00000+0 0  9994
2 47719  63.2520  55.7907 7292817 269.9910  14.5481  2.00617895 39040
FENGYUN 3E              
1 49008U 21062A   26183.84534863  .00000114  00000+0  74250-4 0  9990
2 49008  98.7490 187.0786 0002664  60.8884 299.2558 14.19905807258806
GOES 18                 
1 51850U 22021A   26183.69804314  .00000107  00000+0  00000+0 0  9997
2 51850   0.0153 195.2020 0000551 306.4734 253.3476  1.00271499  6747
NOAA 21 (JPSS-2)        
1 54234U 22150A   26183.82276674  .00000058  00000+0  47932-4 0  9991
2 54234  98.7060 122.3492 0002467 126.4917 233.6487 14.19539315188766
METEOSAT-12 (MTG-I1)    
1 54743U 22170C   26183.72509264  .00000004  00000+0  00000+0 0  9992
2 54743   0.7551  25.3200 0003602  74.6137  81.6181  1.00276285 13138
TIANMU-1 03             
1 55973U 23039A   26183.82790185  .00016476  00000+0  31975-3 0  9997
2 55973  97.5236 358.4139 0003615  59.2341 300.9265 15.47731703183257
TIANMU-1 04             
1 55974U 23039B   26183.81126578  .00016239  00000+0  30855-3 0  9999
2 55974  97.5174 357.5516 0004048  53.5594 306.6029 15.48345742183263
TIANMU-1 05             
1 55975U 23039C   26183.80942707  .00015854  00000+0  30856-3 0  9992
2 55975  97.5220 358.0038 0003724  76.9935 283.1730 15.47656911183236
TIANMU-1 06             
1 55976U 23039D   26183.81563465  .00016299  00000+0  31076-3 0  9993
2 55976  97.5226 358.6619 0003953  71.9383 288.2298 15.48245266183266
FENGYUN 3G              
1 56232U 23055A   26183.80645860  .00022887  00000+0  36147-3 0  9990
2 56232  49.9922 265.5037 0007319   1.7685 358.3307 15.53321812182438
METEOR-M2 3             
1 57166U 23091A   26183.83721928 -.00000003  00000+0  17327-4 0  9997
2 57166  98.6080 238.4948 0005013 117.9649 242.2037 14.24048063156747
TIANMU-1 07             
1 57399U 23101A   26183.86307226  .00007123  00000+0  24785-3 0  9995
2 57399  97.2579 234.1723 0004267  89.9627 270.2103 15.29991543164044
TIANMU-1 08             
1 57400U 23101B   26183.82967120  .00007107  00000+0  24723-3 0  9993
2 57400  97.2569 233.9081 0005486  77.7424 282.4431 15.29995308164035
TIANMU-1 09             
1 57401U 23101C   26183.87814623  .00007524  00000+0  26126-3 0  9990
2 57401  97.2526 233.3632 0004883  92.2270 267.9530 15.30032991164047
TIANMU-1 10             
1 57402U 23101D   26183.84607704  .00007033  00000+0  24456-3 0  9997
2 57402  97.2606 234.3984 0006336  86.3312 273.8653 15.30004579164036
FENGYUN 3F              
1 57490U 23111A   26183.82889463  .00000058  00000+0  47653-4 0  9992
2 57490  98.6831 253.5458 0001483  82.5903 277.5441 14.19941745151087
ARKTIKA-M 2             
1 58584U 23198A   26180.72239164  .00000148  00000+0  00000+0 0  9995
2 58584  63.2199 152.9641 6905877 267.3845  18.7575  2.00610643 18573
TIANMU-1 11             
1 58645U 23205A   26183.84551156  .00006111  00000+0  23211-3 0  9995
2 58645  97.3438 205.1575 0007198 317.3851  42.6829 15.27156789139917
TIANMU-1 12             
1 58646U 23205B   26183.42334862  .00006720  00000+0  25584-3 0  9994
2 58646  97.3426 204.4940 0005309 296.9950  63.0746 15.27051163139833
TIANMU-1 13             
1 58647U 23205C   26183.84991390  .00006284  00000+0  23998-3 0  9998
2 58647  97.3454 205.1894 0004974 269.0173  91.0496 15.26977879139895
TIANMU-1 14             
1 58648U 23205D   26183.83466216  .00006105  00000+0  23289-3 0  9997
2 58648  97.3391 204.3439 0005760 276.5011  83.5572 15.27022058139892
TIANMU-1 19             
1 58660U 23208A   26183.83543037  .00008940  00000+0  29354-3 0  9999
2 58660  97.4523 300.2180 0003635 251.1748 108.9099 15.31812157139728
TIANMU-1 20             
1 58661U 23208B   26183.86108209  .00009075  00000+0  28700-3 0  9995
2 58661  97.4465 300.8955 0005604 264.3956  95.6647 15.33001652139829
TIANMU-1 21             
1 58662U 23208C   26183.82563353  .00010544  00000+0  30921-3 0  9998
2 58662  97.4525 303.6086 0005765 254.6268 105.4339 15.35356927139962
TIANMU-1 22             
1 58663U 23208D   26183.88793304  .00008205  00000+0  27415-3 0  9991
2 58663  97.4519 300.1934 0002170 286.4191  73.6811 15.31278002139734
TIANMU-1 15             
1 58700U 24004A   26182.84348373  .00008429  00000+0  32265-3 0  9992
2 58700  97.4664   9.0340 0005689 288.6642  71.3979 15.26798099138013
TIANMU-1 16             
1 58701U 24004B   26183.88239591  .00006112  00000+0  23405-3 0  9992
2 58701  97.4613   9.2963 0004482 304.8965  55.1852 15.26908609138177
TIANMU-1 17             
1 58702U 24004C   26183.86786291  .00006361  00000+0  24348-3 0  9998
2 58702  97.4641   9.7725 0004089 312.9521  47.1374 15.26906906138168
TIANMU-1 18             
1 58703U 24004D   26183.84327377  .00006016  00000+0  23101-3 0  9996
2 58703  97.4658  10.0093 0003413 287.3644  72.7221 15.26825036138160
INSAT-3DS               
1 58990U 24033A   26183.79377845 -.00000145  00000+0  00000+0 0  9992
2 58990   0.0723  96.7226 0001319   8.3588 183.5507  1.00273790 47226
METEOR-M2 4             
1 59051U 24039A   26183.86969858  .00000022  00000+0  29477-4 0  9993
2 59051  98.7018 142.9711 0008037 119.5224 240.6756 14.22431146121497
GOES 19                 
1 60133U 24119A   26183.56768633 -.00000238  00000+0  00000+0 0  9996
2 60133   0.0126  77.9489 0000538  80.1000 251.7332  1.00271173  7117
MTG-S1                  
1 64723U 25143A   26183.72509264  .00000003  00000+0  00000+0 0  9993
2 64723   0.5916 342.2144 0002957 262.9947 296.1264  1.00272109  3574
METOP-SGA1              
1 65159U 25172A   26183.64337602  .00000065  00000+0  51184-4 0  9997
2 65159  98.6636 243.0440 0007790   9.5325 350.5998 14.19817616 45989
FENGYUN 3H              
1 65815U 25219A   26183.82547603  .00000062  00000+0  49611-4 0  9991
2 65815  98.6770 124.2907 0001387  65.8877 294.2444 14.19923114 39601
OSCAR 7 (AO-7)          
1 07530U 74089B   26183.87627581 -.00000045  00000+0  77302-5 0  9990
2 07530 101.9899 197.2864 0012660 101.0890  19.6253 12.53698346362481
PHASE 3B (AO-10)        
1 14129U 83058B   26182.45083748 -.00000048  00000+0  00000+0 0  9990
2 14129  25.9245 217.2087 6005973 119.5898 312.7847  2.05870235295789
UOSAT 2 (UO-11)         
1 14781U 84021B   26183.86020325  .00001736  00000+0  18198-3 0  9998
2 14781  97.8066 149.2607 0008804 125.4779 234.7262 14.90824847259462
LUSAT (LO-19)           
1 20442U 90005G   26183.53106191  .00000138  00000+0  65860-4 0  9992
2 20442  98.8845 205.7592 0011988 156.2041 203.9699 14.34127832904592
EYESAT A (AO-27)        
1 22825U 93061C   26183.59287117  .00000133  00000+0  67579-4 0  9992
2 22825  98.6875 251.0004 0009336  59.8657 300.3450 14.30946419709201
ITAMSAT (IO-26)         
1 22826U 93061D   26183.63758889  .00000132  00000+0  66678-4 0  9995
2 22826  98.6822 250.9642 0009642  44.3148 315.8806 14.31373734709520
RADIO ROSTO (RS15)      
1 23439U 94085A   26183.81395042 -.00000021  00000+0  60439-3 0  9997
2 23439  64.8178 277.9441 0156471   0.9878 359.1328 11.27583443297666
JAS-2 (FO-29)           
1 24278U 96046B   26183.83715119 -.00000028  00000+0  57561-5 0  9992
2 24278  98.5226  30.5644 0350782  55.9383 307.4537 13.53274951475282
TECHSAT 1B (GO-32)      
1 25397U 98043D   26183.72856333  .00000062  00000+0  46868-4 0  9990
2 25397  99.0074 176.8795 0001776 134.8948 225.2374 14.24431411453549
ISS (ZARYA)             
1 25544U 98067A   26182.50817465  .00006185  00000+0  11827-3 0  9996
2 25544  51.6311 229.1989 0004224 255.0896 104.9625 15.49503254573972
PCSAT (NO-44)           
1 26931U 01043C   26183.45542852  .00000104  00000+0  69838-4 0  9996
2 26931  67.0489 204.7811 0006018 265.5934  94.4481 14.31961164292637
SAUDISAT 1C (SO-50)     
1 27607U 02058C   26183.73200521  .00001058  00000+0  14185-3 0  9992
2 27607  64.5520  80.8899 0074883 259.5665  99.6996 14.83079392266767
CUTE-1 (CO-55)          
1 27844U 03031E   26183.84293220  .00000336  00000+0  16430-3 0  9990
2 27844  98.6736 192.2049 0010444 134.8646 225.3382 14.24345534193900
CUBESAT XI-IV (CO-57)   
1 27848U 03031J   26183.76896903  .00000279  00000+0  14166-3 0  9992
2 27848  98.6769 191.8320 0009990 152.4134 207.7577 14.23629228193598
MOZHAETS 4 (RS22)       
1 27939U 03042A   26183.84282728  .00001660  00000+0  26355-3 0  9996
2 27939  98.3466   8.6439 0010317 214.1803 270.9744 14.73497286217856
CUBESAT XI-V            
1 28895U 05043F   26183.69034545  .00001723  00000+0  27823-3 0  9997
2 28895  98.3002 339.6391 0014699 152.1460 208.0536 14.72675255104034
CUTE-1.7+APD II (CO-65) 
1 32785U 08021C   26183.89264118  .00007348  00000+0  46082-3 0  9999
2 32785  97.8286 165.6398 0008120 347.2751  12.8271 15.09606626987562
SEEDS II (CO-66)        
1 32791U 08021J   26183.80114904  .00020103  00000+0  62654-3 0  9991
2 32791  97.7521 182.4499 0001504 186.8338 173.2883 15.33292646989682
YUBILEINY (RS30)        
1 32953U 08025A   26183.87216169  .00000060  00000+0  36410-3 0  9999
2 32953  82.5047 345.6812 0018506 277.6074  82.2904 12.43180358821643
KKS-1 (KISEKI)          
1 33499U 09002H   26183.77363459  .00001569  00000+0  19908-3 0  9993
2 33499  98.1182 106.4628 0006564 234.2515 125.8088 14.83164432938502
SWISSCUBE               
1 35932U 09051B   26183.28877764  .00001164  00000+0  23926-3 0  9992
2 35932  98.4025  91.4397 0007062 154.9157 205.2388 14.62510844891362
